{
  "norad_id": 63033,
  "name": "STARLINK-32772",
  "history": [
    {
      "epoch": "2026-05-02T10:04:00.149088Z",
      "apogee_km": 474.20903819967316,
      "perigee_km": 473.07164316111994,
      "latitude_deg": -4.9965750279128e-05,
      "longitude_deg": -2.8225117830083737,
      "height_km": 474.4410749270583,
      "semi_major_axis_km": 6851.777340680396,
      "eccentricity": 8.3e-05,
      "inclination_deg": 53.1612,
      "raan_deg": 8.5159,
      "arg_perigee_deg": 80.0473,
      "mean_anomaly_deg": 280.0621,
      "mean_motion_rev_day": 15.30727554
    },
    {
      "epoch": "2026-05-03T20:32:23.273088Z",
      "apogee_km": 473.9890219100571,
      "perigee_km": 472.7269765312003,
      "latitude_deg": -7.411301863620331e-06,
      "longitude_deg": -168.01149344652936,
      "height_km": 474.0975509373616,
      "semi_major_axis_km": 6851.494999220628,
      "eccentricity": 9.21e-05,
      "inclination_deg": 53.1624,
      "raan_deg": 1.839,
      "arg_perigee_deg": 75.3553,
      "mean_anomaly_deg": 284.755,
      "mean_motion_rev_day": 15.30822174
    },
    {
      "epoch": "2026-05-04T09:04:29.766720Z",
      "apogee_km": 473.90274319124546,
      "perigee_km": 472.6353700988884,
      "latitude_deg": 5.940129380344321e-05,
      "longitude_deg": 1.0182979536240273,
      "height_km": 473.9630563974758,
      "semi_major_axis_km": 6851.406056645067,
      "eccentricity": 9.249e-05,
      "inclination_deg": 53.1623,
      "raan_deg": 359.4106,
      "arg_perigee_deg": 71.1152,
      "mean_anomaly_deg": 288.995,
      "mean_motion_rev_day": 15.30851983
    },
    {
      "epoch": "2026-05-05T14:50:41.266752Z",
      "apogee_km": 473.6758914611182,
      "perigee_km": 472.37828098318823,
      "latitude_deg": 3.608491817037423e-05,
      "longitude_deg": -92.51944557631107,
      "height_km": 473.6080441639248,
      "semi_major_axis_km": 6851.164086222153,
      "eccentricity": 9.47e-05,
      "inclination_deg": 53.1614,
      "raan_deg": 353.6434,
      "arg_perigee_deg": 60.6355,
      "mean_anomaly_deg": 299.4741,
      "mean_motion_rev_day": 15.30933084
    },
    {
      "epoch": "2026-05-06T20:36:47.539584Z",
      "apogee_km": 473.48214866577837,
      "perigee_km": 472.17498443568184,
      "latitude_deg": 2.3184174086786535e-05,
      "longitude_deg": 173.9635581456318,
      "height_km": 473.37209508529384,
      "semi_major_axis_km": 6850.96556655073,
      "eccentricity": 9.54e-05,
      "inclination_deg": 53.1593,
      "raan_deg": 347.8751,
      "arg_perigee_deg": 57.0576,
      "mean_anomaly_deg": 303.0517,
      "mean_motion_rev_day": 15.30999627
    },
    {
      "epoch": "2026-05-07T20:06:49.438080Z",
      "apogee_km": 473.58866221830795,
      "perigee_km": 471.8293649620182,
      "latitude_deg": 6.141990459285273e-06,
      "longitude_deg": 175.9368992484268,
      "height_km": 472.96272726765994,
      "semi_major_axis_km": 6850.846013590163,
      "eccentricity": 0.0001284,
      "inclination_deg": 53.1601,
      "raan_deg": 343.3215,
      "arg_perigee_deg": 42.8172,
      "mean_anomaly_deg": 317.2929,
      "mean_motion_rev_day": 15.31039703
    },
    {
      "epoch": "2026-05-08T21:10:50.866752Z",
      "apogee_km": 474.3262678469928,
      "perigee_km": 470.9940401112972,
      "latitude_deg": 6.105667939527037e-05,
      "longitude_deg": 154.03921659505352,
      "height_km": 472.80134788557126,
      "semi_major_axis_km": 6850.797153979144,
      "eccentricity": 0.0002432,
      "inclination_deg": 53.161,
      "raan_deg": 338.4592,
      "arg_perigee_deg": 63.0138,
      "mean_anomaly_deg": 297.1112,
      "mean_motion_rev_day": 15.31056082
    },
    {
      "epoch": "2026-05-09T20:40:52.658112Z",
      "apogee_km": 473.3478870908357,
      "perigee_km": 472.0955501170747,
      "latitude_deg": 4.9350644916161476e-05,
      "longitude_deg": 156.0153107056866,
      "height_km": 473.1926839022939,
      "semi_major_axis_km": 6850.858718603955,
      "eccentricity": 9.14e-05,
      "inclination_deg": 53.1603,
      "raan_deg": 333.9079,
      "arg_perigee_deg": 46.8465,
      "mean_anomaly_deg": 313.2613,
      "mean_motion_rev_day": 15.31035444
    },
    {
      "epoch": "2026-05-10T20:10:59.827872Z",
      "apogee_km": 476.14361198423285,
      "perigee_km": 470.7938782184583,
      "latitude_deg": -5.084513589542029e-05,
      "longitude_deg": 157.9683684345876,
      "height_km": 471.7292420737255,
      "semi_major_axis_km": 6851.605745101346,
      "eccentricity": 0.0003904,
      "inclination_deg": 53.1599,
      "raan_deg": 329.3561,
      "arg_perigee_deg": 9.434,
      "mean_anomaly_deg": 350.6733,
      "mean_motion_rev_day": 15.30785059
    },
    {
      "epoch": "2026-05-11T19:41:43.181088Z",
      "apogee_km": 475.65344247590474,
      "perigee_km": 474.4760624148348,
      "latitude_deg": -1.2748686167534491e-05,
      "longitude_deg": 159.77085288617124,
      "height_km": 475.9533762785553,
      "semi_major_axis_km": 6853.2017524453695,
      "eccentricity": 8.59e-05,
      "inclination_deg": 53.1599,
      "raan_deg": 324.8048,
      "arg_perigee_deg": 89.0253,
      "mean_anomaly_deg": 271.0846,
      "mean_motion_rev_day": 15.30250345
    },
    {
      "epoch": "2026-05-12T20:00:01.999008Z",
      "apogee_km": 476.0788992738135,
      "perigee_km": 474.3957105445288,
      "latitude_deg": -1.6112402881024133,
      "longitude_deg": -29.306757260486574,
      "height_km": 476.5298971916367,
      "semi_major_axis_km": 6853.374304909171,
      "eccentricity": 0.0001228,
      "inclination_deg": 53.1595,
      "raan_deg": 320.1029,
      "arg_perigee_deg": 80.2617,
      "mean_anomaly_deg": 101.6256,
      "mean_motion_rev_day": 15.30192553
    },
    {
      "epoch": "2026-05-13T20:00:01.999008Z",
      "apogee_km": 476.15788053956203,
      "perigee_km": 474.36640200403326,
      "latitude_deg": -47.32754906020689,
      "longitude_deg": 89.94251368590731,
      "height_km": 492.2165242968078,
      "semi_major_axis_km": 6853.399141271798,
      "eccentricity": 0.0001307,
      "inclination_deg": 53.1599,
      "raan_deg": 315.4579,
      "arg_perigee_deg": 83.723,
      "mean_anomaly_deg": 209.9385,
      "mean_motion_rev_day": 15.30184235
    },
    {
      "epoch": "2026-05-14T08:00:01.000224Z",
      "apogee_km": 476.13823030414915,
      "perigee_km": 474.4662652652587,
      "latitude_deg": 8.358927343733596,
      "longitude_deg": 134.76387567070574,
      "height_km": 475.31993779080256,
      "semi_major_axis_km": 6853.439247784703,
      "eccentricity": 0.00012198,
      "inclination_deg": 53.16,
      "raan_deg": 313.1336,
      "arg_perigee_deg": 92.1311,
      "mean_anomaly_deg": 77.3546,
      "mean_motion_rev_day": 15.30170803
    },
    {
      "epoch": "2026-05-15T00:00:02.000160Z",
      "apogee_km": 476.0472785437141,
      "perigee_km": 474.32284564645033,
      "latitude_deg": -46.22872114742313,
      "longitude_deg": -51.6566735646485,
      "height_km": 491.75002102360645,
      "semi_major_axis_km": 6853.322062095082,
      "eccentricity": 0.00012581,
      "inclination_deg": 53.1602,
      "raan_deg": 310.0383,
      "arg_perigee_deg": 78.9155,
      "mean_anomaly_deg": 165.1667,
      "mean_motion_rev_day": 15.3021005
    }
  ]
}